APRIZESAT 2             
1 28366U 04025A   24358.09457210  .00000451  00000+0  15348-3 0  9999
2 28366  98.0715 184.9458 0107524  83.9420 277.4008 14.37606928 73904
SAUDICOMSAT 1           
1 28369U 04025D   24357.85612482  .00001183  00000+0  28651-3 0  9993
2 28369  98.5571 343.0383 0031495 240.3715 119.4343 14.54633350 85409
SAUDICOMSAT 2           
1 28370U 04025E   24357.87047514  .00000913  00000+0  24698-3 0  9992
2 28370  98.6482 344.2731 0057232  98.4914 262.2771 14.49268245 81671
APRIZESAT 1             
1 28372U 04025G   24357.89604864  .00000988  00000+0  25796-3 0  9995
2 28372  98.6115 343.4113 0045093   2.5329 357.6085 14.51159360 83386
NANOSAT-1               
1 28493U 04049B   24357.88809412  .00003085  00000+0  43523-3 0  9999
2 28493  98.1618 113.4578 0003310 219.6324 140.4644 14.77961563 75424
SAUDICOMSAT 7           
1 31119U 07012C   24357.83728385  .00001624  00000+0  30672-3 0  9993
2 31119  98.3045 312.8089 0058333  92.9491 267.8388 14.64754806943141
SAUDICOMSAT 6           
1 31121U 07012E   24358.08723364  .00001456  00000+0  29427-3 0  9995
2 31121  98.3358 307.4945 0072512 210.9880 148.7033 14.61321631941180
SAUDICOMSAT 5           
1 31124U 07012H   24357.93395508  .00002363  00000+0  42613-3 0  9996
2 31124  98.2751 313.8072 0049475  30.0334 330.3690 14.66687537944274
SAUDICOMSAT 3           
1 31125U 07012J   24357.83711112  .00002617  00000+0  45017-3 0  9992
2 31125  98.2419 314.3769 0039695 325.3819  34.4802 14.68980181945299
SAUDICOMSAT 4           
1 31127U 07012L   24358.11250300  .00001473  00000+0  28725-3 0  9999
2 31127  98.3246 311.5921 0065427 147.9556 212.5649 14.63198852942271
APRIZESAT 4             
1 35684U 09041D   24358.15484790  .00001985  00000+0  25124-3 0  9999
2 35684  98.2119  50.1123 0043233 273.5891  86.0378 14.82384166831210
APRIZESAT 3             
1 35686U 09041F   24357.86769070  .00003621  00000+0  33837-3 0  9994
2 35686  98.1332 117.8549 0066252  53.3005 307.4275 14.93164551835506
AISSAT 1                
1 36797U 10035C   24358.17470362  .00005410  00000+0  51983-3 0  9991
2 36797  98.1573 226.7260 0010848  49.6474 310.5690 14.93440159783481
S-NET D                 
1 43186U 18014G   24357.69660412  .00008548  00000+0  54866-3 0  9997
2 43186  97.5753 256.5325 0011598  83.3851 276.8697 15.08661873376882
S-NET B                 
1 43187U 18014H   24358.16442213  .00009409  00000+0  60334-3 0  9992
2 43187  97.5759 256.9564 0012418  77.9757 282.2863 15.08658319376959
S-NET A                 
1 43188U 18014J   24357.69749241  .00008577  00000+0  55035-3 0  9998
2 43188  97.5766 256.6260 0012260  80.1103 280.1509 15.08665493376881
S-NET C                 
1 43189U 18014K   24358.16648558  .00009391  00000+0  60196-3 0  9990
2 43189  97.5782 257.0736 0013920  72.4288 287.8459 15.08656038375506
SALSAT                  
1 46495U 20068K   24357.90895763  .00013678  00000+0  66659-3 0  9991
2 46495  97.8421 322.8977 0013981  33.4092 326.8021 15.18379998232898
OOV-CUBE (TUBSAT-30)    
1 60240U 24128F   24357.88022353  .00006259  00000+0  53223-3 0  9990
2 60240  61.9979 307.5653 0030698  11.9335 348.2474 14.98471375 24863
